[{"OBJECT_NAME":"STARLINK-3111","OBJECT_ID":"2021-104L","EPOCH":"2026-03-09T16:54:34.593120","MEAN_MOTION":15.08841323,"ECCENTRICITY":0.00011561,"INCLINATION":53.2168,"RA_OF_ASC_NODE":229.0547,"ARG_OF_PERICENTER":82.8468,"MEAN_ANOMALY":277.2655,"EPHEMERIS_TYPE":0,"CLASSIFICATION_TYPE":"U","NORAD_CAT_ID":49418,"ELEMENT_SET_NO":999,"REV_AT_EPOCH":23862,"BSTAR":-4.366709e-6,"MEAN_MOTION_DOT":-3.57e-6,"MEAN_MOTION_DDOT":0},{"OBJECT_NAME":"JILIN-01 KUANFU 02B 4","OBJECT_ID":"2024-169D","EPOCH":"2026-03-09T23:04:43.463424","MEAN_MOTION":15.0922271,"ECCENTRICITY":0.00080501,"INCLINATION":97.5522,"RA_OF_ASC_NODE":159.355,"ARG_OF_PERICENTER":260.1533,"MEAN_ANOMALY":99.8787,"EPHEMERIS_TYPE":0,"CLASSIFICATION_TYPE":"U","NORAD_CAT_ID":61192,"ELEMENT_SET_NO":999,"REV_AT_EPOCH":8086,"BSTAR":0.00035789888,"MEAN_MOTION_DOT":5.634e-5,"MEAN_MOTION_DDOT":0}]
